OBJECT_NAME,OBJECT_ID,EPOCH,MEAN_MOTION,ECCENTRICITY,INCLINATION,RA_OF_ASC_NODE,ARG_OF_PERICENTER,MEAN_ANOMALY,EPHEMERIS_TYPE,CLASSIFICATION_TYPE,NORAD_CAT_ID,ELEMENT_SET_NO,REV_AT_EPOCH,BSTAR,MEAN_MOTION_DOT,MEAN_MOTION_DDOT
STARLINK-30147,2023-113S,2026-07-15T21:15:05.116032,15.27522721,.0001898,43.0073,11.8720,275.4291,84.6345,0,U,57511,999,16328,.47566E-3,.12827E-3,0
STARLINK-30157,2023-113T,2026-07-15T16:46:20.448192,15.27588655,.00016283,43.0045,347.3501,274.0617,86.0048,0,U,57512,999,16355,.1478065E-3,.3808E-4,0
STARLINK-30168,2023-113U,2026-07-16T05:00:17.779104,15.27572259,.00014994,43.0042,9.9698,279.7647,80.3036,0,U,57513,999,16317,.35152019E-4,.705E-5,0
STARLINK-30231,2023-113V,2026-07-15T21:31:43.163904,15.27576009,.0001393,43.0023,11.9453,263.7538,96.3155,0,U,57514,999,16328,.27482E-4,.494E-5,0
STARLINK-30081,2023-113W,2026-07-16T04:54:45.021600,15.27573586,.00014692,43.0049,9.9770,271.3343,88.7341,0,U,57515,999,16333,.20883861E-4,.312E-5,0
STARLINK-30149,2023-113X,2026-07-15T21:24:18.826848,15.27580022,.0001746,43.0041,11.9203,271.5941,88.4710,0,U,57516,999,16318,.21405E-4,.327E-5,0
COSMOS 2569 [GLONASS-K2],2023-114A,2026-07-15T21:04:36.390144,2.13103741,.00096551,65.3185,71.6532,295.9092,64.0686,0,U,57517,999,2287,0,-.13E-6,0
HJ-2F,2023-116A,2026-07-16T07:14:33.709920,15.22702761,.00065154,97.3847,202.0217,307.9891,52.0757,0,U,57519,999,16318,.15991596E-3,.3659E-4,0
STARLINK-30259,2023-115A,2026-07-15T17:38:03.513696,15.27569274,.00004387,43.0002,358.5110,192.5385,167.5456,0,U,57521,999,16315,.98539013E-4,.245E-4,0
STARLINK-30256,2023-115B,2026-07-15T18:09:31.066848,15.27567026,.0001306,43.0038,358.6683,261.9702,98.1001,0,U,57522,999,16193,.48643516E-4,.1076E-4,0
STARLINK-30261,2023-115C,2026-07-15T21:06:43.931232,15.27576393,.0001306,43.0029,357.8717,275.3628,84.7075,0,U,57523,999,16195,-.16771E-4,-.724E-5,0
STARLINK-30260,2023-115D,2026-07-15T17:32:30.727680,15.27576124,.00015038,43.0043,358.5004,262.8689,97.1991,0,U,57524,999,16193,.40889858E-4,.863E-5,0
STARLINK-30253,2023-115E,2026-07-15T19:23:19.076352,15.27575706,.00010405,43.0010,358.1975,247.7240,112.3502,0,U,57525,999,16194,.32762923E-4,.64E-5,0
STARLINK-30257,2023-115F,2026-07-16T03:08:33.777600,15.27574748,.00007745,43.0006,356.3490,279.7278,80.3486,0,U,57526,999,16199,.12401415E-4,.79E-6,0
STARLINK-30250,2023-115G,2026-07-15T21:03:01.783872,15.27574257,.0000673,43.0009,357.8525,282.8236,77.2541,0,U,57527,999,16285,.1056E-4,.29E-6,0
STARLINK-30269,2023-115H,2026-07-15T12:03:59.945760,15.27574957,.00009648,43.0028,0.2264,255.4418,104.6327,0,U,57528,999,16189,.22077697E-4,.346E-5,0
STARLINK-30266,2023-115J,2026-07-15T20:20:28.561056,15.27575467,.0001544,43.0031,357.6413,263.1088,96.9588,0,U,57529,999,16195,-.3895E-4,-.1334E-4,0
STARLINK-30270,2023-115K,2026-07-15T12:18:35.322048,15.27592970,.00011622,42.9992,359.4366,212.6540,147.4240,0,U,57530,999,16190,.61585765E-3,.1673E-3,0
STARLINK-30268,2023-115L,2026-07-15T10:24:16.912512,15.27575315,.00016871,43.0039,0.5543,230.7237,129.3466,0,U,57531,999,16188,.60557302E-4,.1404E-4,0
STARLINK-30251,2023-115M,2026-07-16T04:05:42.304128,15.27574029,.00013917,43.0054,355.7690,260.9102,99.1593,0,U,57532,999,16200,.2908073E-4,.538E-5,0
STARLINK-30254,2023-115N,2026-07-16T01:36:22.472928,15.27564680,.00021744,43.0010,98.1557,260.5048,99.5558,0,U,57533,999,16499,.459429E-6,-.25E-5,0
STARLINK-30264,2023-115P,2026-07-16T06:49:49.201536,15.27576281,.00016625,43.0017,202.6628,284.8288,75.2380,0,U,57534,999,16502,.39213849E-4,.817E-5,0
2023-117C,2023-117C,2026-07-16T05:56:43.954944,15.41864916,.00078971,97.4062,278.6770,130.4317,229.7620,0,U,57582,999,16304,.3176106E-3,.13411E-3,0
2023-117F,2023-117F,2026-07-16T06:32:47.989824,15.46219598,.00074765,97.4196,283.9824,119.7151,240.4843,0,U,57585,999,16334,.24923206E-3,.12173E-3,0
STARLINK-30166,2023-119A,2026-07-16T01:47:38.770656,15.27580923,.00016487,43.0003,76.3243,255.9854,104.0814,0,U,57602,999,16266,.38063916E-4,.785E-5,0
STARLINK-30223,2023-119B,2026-07-16T02:48:25.981632,15.11825451,.00069614,42.9973,96.2208,191.4181,168.6508,0,U,57603,999,16248,.63054408E-3,.10762E-3,0
STARLINK-30218,2023-119C,2026-07-16T00:44:56.790240,15.27574468,.00013885,43.0023,76.8583,265.8616,94.2077,0,U,57604,999,16271,.4510546E-4,.979E-5,0
STARLINK-30138,2023-119D,2026-07-16T00:50:29.939136,15.27575123,.00015058,43.0014,76.8857,267.8780,92.1899,0,U,57605,999,16271,.75043204E-4,.1803E-4,0
STARLINK-30255,2023-119E,2026-07-15T22:46:45.322752,15.27568180,.00012744,43.0040,77.0968,247.1351,112.9366,0,U,57606,999,16270,-.23373218E-4,-.905E-5,0
STARLINK-30252,2023-119F,2026-07-16T01:15:08.574048,15.27572742,.00009408,43.0069,61.7174,324.0119,36.0670,0,U,57607,999,16289,.1241663E-4,.8E-6,0
