STARLINK-30147          
1 57511U 23113S   26196.88547588  .00012827  00000+0  47566-3 0  9996
2 57511  43.0073  11.8720 0001898 275.4291  84.6345 15.27522721163287
STARLINK-30157          
1 57512U 23113T   26196.69884778  .00003808  00000+0  14781-3 0  9993
2 57512  43.0045 347.3501 0001628 274.0617  86.0048 15.27588655163553
STARLINK-30168          
1 57513U 23113U   26197.20853911  .00000705  00000+0  35152-4 0  9996
2 57513  43.0042   9.9698 0001499 279.7647  80.3036 15.27572259163175
STARLINK-30231          
1 57514U 23113V   26196.89702736  .00000494  00000+0  27482-4 0  9991
2 57514  43.0023  11.9453 0001393 263.7538  96.3155 15.27576009163280
STARLINK-30081          
1 57515U 23113W   26197.20468775  .00000312  00000+0  20884-4 0  9998
2 57515  43.0049   9.9770 0001469 271.3343  88.7341 15.27573586163336
STARLINK-30149          
1 57516U 23113X   26196.89188457  .00000327  00000+0  21405-4 0  9995
2 57516  43.0041  11.9203 0001746 271.5941  88.4710 15.27580022163180
COSMOS 2569 [GLONASS-K2]
1 57517U 23114A   26196.87819896 -.00000013  00000+0  00000+0 0  9999
2 57517  65.3185  71.6532 0009655 295.9092  64.0686  2.13103741 22871
HJ-2F                   
1 57519U 23116A   26197.30177905  .00003659  00000+0  15992-3 0  9998
2 57519  97.3847 202.0217 0006515 307.9891  52.0757 15.22702761163183
STARLINK-30259          
1 57521U 23115A   26196.73476289  .00002450  00000+0  98539-4 0  9990
2 57521  43.0002 358.5110 0000438 192.5385 167.5456 15.27569274163150
STARLINK-30256          
1 57522U 23115B   26196.75660957  .00001076  00000+0  48644-4 0  9995
2 57522  43.0038 358.6683 0001306 261.9702  98.1001 15.27567026161937
STARLINK-30261          
1 57523U 23115C   26196.87967513 -.00000724  00000+0 -16771-4 0  9994
2 57523  43.0029 357.8717 0001306 275.3628  84.7075 15.27576393161954
STARLINK-30260          
1 57524U 23115D   26196.73091120  .00000863  00000+0  40890-4 0  9993
2 57524  43.0043 358.5004 0001503 262.8689  97.1991 15.27576124161930
STARLINK-30253          
1 57525U 23115E   26196.80785968  .00000640  00000+0  32763-4 0  9995
2 57525  43.0010 358.1975 0001040 247.7240 112.3502 15.27575706161943
STARLINK-30257          
1 57526U 23115F   26197.13094650  .00000079  00000+0  12401-4 0  9997
2 57526  43.0006 356.3490 0000774 279.7278  80.3486 15.27574748161995
STARLINK-30250          
1 57527U 23115G   26196.87710398  .00000029  00000+0  10560-4 0  9991
2 57527  43.0009 357.8525 0000673 282.8236  77.2541 15.27574257162859
STARLINK-30269          
1 57528U 23115H   26196.50277715  .00000346  00000+0  22078-4 0  9992
2 57528  43.0028   0.2264 0000964 255.4418 104.6327 15.27574957161898
STARLINK-30266          
1 57529U 23115J   26196.84755279 -.00001334  00000+0 -38950-4 0  9992
2 57529  43.0031 357.6413 0001544 263.1088  96.9588 15.27575467161958
STARLINK-30270          
1 57530U 23115K   26196.51290882  .00016730  00000+0  61586-3 0  9996
2 57530  42.9992 359.4366 0001162 212.6540 147.4240 15.27592970161909
STARLINK-30268          
1 57531U 23115L   26196.43352908  .00001404  00000+0  60557-4 0  9996
2 57531  43.0039   0.5543 0001687 230.7237 129.3466 15.27575315161881
STARLINK-30251          
1 57532U 23115M   26197.17062852  .00000538  00000+0  29081-4 0  9999
2 57532  43.0054 355.7690 0001391 260.9102  99.1593 15.27574029162006
STARLINK-30254          
1 57533U 23115N   26197.06692677 -.00000250  00000+0  45943-6 0  9991
2 57533  43.0010  98.1557 0002174 260.5048  99.5558 15.27564680164991
STARLINK-30264          
1 57534U 23115P   26197.28459724  .00000817  00000+0  39214-4 0  9990
2 57534  43.0017 202.6628 0001662 284.8288  75.2380 15.27576281165025
2023-117C               
1 57582U 23117C   26197.24773096  .00013411  00000+0  31761-3 0  9994
2 57582  97.4062 278.6770 0007897 130.4317 229.7620 15.41864916163041
2023-117F               
1 57585U 23117F   26197.27277766  .00012173  00000+0  24923-3 0  9999
2 57585  97.4196 283.9824 0007476 119.7151 240.4843 15.46219598163345
STARLINK-30166          
1 57602U 23119A   26197.07475429  .00000785  00000+0  38064-4 0  9993
2 57602  43.0003  76.3243 0001648 255.9854 104.0814 15.27580923162665
STARLINK-30223          
1 57603U 23119B   26197.11696738  .00010762  00000+0  63054-3 0  9999
2 57603  42.9973  96.2208 0006961 191.4181 168.6508 15.11825451162489
STARLINK-30218          
1 57604U 23119C   26197.03121285  .00000979  00000+0  45105-4 0  9998
2 57604  43.0023  76.8583 0001388 265.8616  94.2077 15.27574468162712
STARLINK-30138          
1 57605U 23119D   26197.03506874  .00001803  00000+0  75043-4 0  9991
2 57605  43.0014  76.8857 0001505 267.8780  92.1899 15.27575123162710
STARLINK-30255          
1 57606U 23119E   26196.94913568 -.00000905  00000+0 -23373-4 0  9996
2 57606  43.0040  77.0968 0001274 247.1351 112.9366 15.27568180162708
STARLINK-30252          
1 57607U 23119F   26197.05218257  .00000080  00000+0  12417-4 0  9992
2 57607  43.0069  61.7174 0000940 324.0119  36.0670 15.27572742162898
